GLOBALSTAR M094         
1 39074U 13005C   23344.41345588 -.00000111  00000+0 -37920-4 0  9995
2 39074  51.9969  71.2378 0000873 126.3755 233.7192 12.62270188502314
GLOBALSTAR M096         
1 39075U 13005D   23344.58513523 -.00000109  00000+0 -26577-4 0  9993
2 39075  52.0060 118.7967 0001306 113.8223 246.2781 12.62266929501256
GLOBALSTAR M078         
1 39076U 13005E   23344.79615005 -.00000098  00000+0  31508-4 0  9991
2 39076  51.9859 203.4201 0001783  54.1743 305.9289 12.62264475500111
GLOBALSTAR M095         
1 39077U 13005F   23344.03069097 -.00000066  00000+0  21191-3 0  9994
2 39077  51.9777 203.2236 0001749  74.1873 285.9186 12.62271780499662
GLOBALSTAR M087         
1 52888U 22064A   23344.76011386 -.00000108  00000+0  38558-4 0  9995
2 52888  51.9740 148.8959 0008614 240.3728 119.6315 13.37560065 72177
